#aV2021  9  9  0  0  0.00000000     288 DD+AD WGS84 FIT  NGA
## 2174 345600.00000000   300.00000000 59466 0.0000000000000
+   32     1  2  3  4  5  6  7  8  9 10 11 12 13 14 15 16 17
+         18 19 20 21 22 23 24 25 26 27 28 29 30 31 32  0  0
+          0  0  0  0  0  0  0  0  0  0  0  0  0  0  0  0  0
+          0  0  0  0  0  0  0  0  0  0  0  0  0  0  0  0  0
+          0  0  0  0  0  0  0  0  0  0  0  0  0  0  0  0  0
++         2  2  2  2  2  2  2  2  2  2  2  2  2  2  2  2  2
++         2  2  2  2  2  2  2  2  2  2  2  2  2  2  2  0  0
++         0  0  0  0  0  0  0  0  0  0  0  0  0  0  0  0  0
++         0  0  0  0  0  0  0  0  0  0  0  0  0  0  0  0  0
++         0  0  0  0  0  0  0  0  0  0  0  0  0  0  0  0  0
%c cc cc ccc ccc cccc cccc cccc cccc ccccc ccccc ccccc ccccc
%c cc cc ccc ccc cccc cccc cccc cccc ccccc ccccc ccccc ccccc
%f  0.0000000  0.000000000  0.00000000000  0.000000000000000
%f  0.0000000  0.000000000  0.00000000000  0.000000000000000
%i    0    0    0    0      0      0      0      0         0
%i    0    0    0    0      0      0      0      0         0
/*      NGA, ST. LOUIS,MO.                                  
/*   EPHEMERIS COMPUTED FROM 2 DAYS OF DATA                 
/*   EPOCHA v7 SMOOTHER                                     
/*   G2139 IERS2010 SATIGS SATAPC                           
*  2021  9  9 17 10  0.00000000
P  1  -4848.677443  17170.430102 -19832.465246    572.554695                    
V  1 -22461.901799  10171.124419  14823.237772     -0.111197                    
P  2  21832.740219 -15132.022596   2028.867934   -631.368509                    
V  2   2894.762139   1295.288047 -31644.005905     -0.021554                    
P  3   4427.621327  18241.591207 -18936.663726   -283.568882                    
V  3 -20654.186447 -11815.758893 -16197.168135     -0.131871                    
P  4   -395.065438  26408.014050   2459.900315   -204.304124                    
V  4  -3089.569453   2886.350835 -31602.167160     -0.000256                    
P  5   9191.658794 -12210.112764  21562.513744    -53.863000                    
V  5  23883.946752  14190.958016  -1970.326169     -0.012499                    
P  6  24037.181239  -4689.716157 -10289.248652     71.278197                    
V  6 -10828.947625   7589.181710 -28540.042604      0.071796                    
P  7  11512.306308  11348.984798  21508.008880    241.982102                    
V  7 -23401.324242  12256.696699   5674.693031      0.072290                    
P  8  -6733.819221  23963.460404   8793.066905    -35.841345                    
V  8  -2349.093063 -11337.986917  29362.386039     -0.014036                    
P  9   8380.506947  21726.388718  12685.865924   -360.665713                    
V  9  -2955.255331  16161.995581 -25614.766699     -0.006698                    
P 10 -23740.077144 -11207.286687  -4816.159296   -199.839062                    
V 10  -4032.160426  -5228.079974  30999.872914     -0.078392                    
P 11  23923.673565 -11475.213400   1049.026588     16.633056                    
V 11   2391.475533   2048.038397 -31714.272954      0.028445                    
P 12  -2499.310708 -18342.937483 -19345.496243    -94.989828                    
V 12  19830.099464  13486.840878 -15421.124266     -0.054396                    
P 13  12921.608020 -18520.798281  13717.272079    183.143680                    
V 13  -1038.011989  17799.693665  24898.329141      0.053197                    
P 14  23252.286494  11745.620306  -5319.649183      5.005930                    
V 14   3877.602638   6219.989243  30636.121930     -0.082135                    
P 15   3996.665062 -24771.470842   7776.376514   -122.306659                    
V 15   4655.133158  10216.505204  29077.830504      0.027289                    
P 16 -14584.301556   6793.957801  20971.147515   -387.808468                    
V 16 -21076.456464 -17000.730355  -8599.147430     -0.063435                    
P 17  12793.094216   9930.683546 -20619.153828    502.213441                    
V 17  -3679.033198  26880.888175  10455.175674      0.055927                    
P 18 -12899.628146  -9775.121586  21063.759281    324.212564                    
V 18  23698.333036 -12382.045177   8673.042363     -0.041680                    
P 19  15025.641056     43.423996 -22165.401322     50.759712                    
V 19  -3919.303520  27158.639417  -2790.017787      0.049695                    
P 20  19169.699558  -5385.415877  17420.138985    519.226499                    
V 20  19504.628287  11125.488653 -18254.386890     -0.001917                    
P 21 -12505.002777  18588.861933 -13141.913438    141.840631                    
V 21 -16870.789408   7047.618865  25268.798059      0.019999                    
P 22  -3010.452960  15794.183320 -20989.934773   -517.335534                    
V 22 -24458.600672 -11741.301739  -5080.825768      0.093091                    
P 23 -19577.537532 -16874.784893   6254.089316     59.670223                    
V 23   8110.418707   1954.552456  30472.559907     -0.049169                    
P 24   8338.223608 -19248.627948 -16312.184792    230.705343                    
V 24  18776.266145  -8548.246884  20410.007805      0.089728                    
P 25 -13180.146594 -19298.560497 -13133.475513    205.499575                    
V 25  14718.345092   6955.909970 -25239.943332      0.063241                    
P 26 -22676.464094  -1324.044314  13931.334786    132.331391                    
V 26 -14132.953079 -10985.198419 -23668.107395      0.042450                    
P 27 -12012.014875  16514.434934  16595.704055   -190.547872                    
V 27   -825.470690 -21593.134430  21022.206498     -0.053530                    
P 28  22442.956465   8050.317609 -10945.868353    504.280443                    
V 28  10138.954945  11035.469960  27729.341678     -0.070492                    
P 29  -4475.136007 -23730.893629  10935.472134   -409.162450                    
V 29   3533.879910 -13620.037060 -28056.184896     -0.057209                    
P 30  21054.457705   2916.317752  16139.840875   -471.155676                    
V 30 -17309.704288  10910.544113  20462.472050     -0.038875                    
P 31 -24894.091995   5614.384134  -8278.095390   -138.868422                    
V 31   8188.279469  -6619.102781 -28988.796662     -0.020200                    
P 32 -14726.585322  -5761.815542 -21248.328354      0.969823                    
V 32   1556.881818 -27192.095204   6087.782556     -0.033041                    
EOF
